[{"OBJECT_NAME":"QIANFAN-26","OBJECT_ID":"2024-185H","EPOCH":"2026-03-09T23:12:51.629472","MEAN_MOTION":13.77863596,"ECCENTRICITY":0.00078495,"INCLINATION":88.9749,"RA_OF_ASC_NODE":70.3172,"ARG_OF_PERICENTER":102.881,"MEAN_ANOMALY":257.3233,"EPHEMERIS_TYPE":0,"CLASSIFICATION_TYPE":"U","NORAD_CAT_ID":61559,"ELEMENT_SET_NO":999,"REV_AT_EPOCH":8068,"BSTAR":0.00026503001,"MEAN_MOTION_DOT":2.78e-6,"MEAN_MOTION_DDOT":0},{"OBJECT_NAME":"COSMOS 1275 DEB","OBJECT_ID":"1981-053CK","EPOCH":"2026-03-09T07:45:02.665728","MEAN_MOTION":13.7384946,"ECCENTRICITY":0.00464164,"INCLINATION":82.9528,"RA_OF_ASC_NODE":347.715,"ARG_OF_PERICENTER":209.8196,"MEAN_ANOMALY":275.2042,"EPHEMERIS_TYPE":0,"CLASSIFICATION_TYPE":"U","NORAD_CAT_ID":12742,"ELEMENT_SET_NO":999,"REV_AT_EPOCH":23512,"BSTAR":0.00013204551,"MEAN_MOTION_DOT":1.39e-6,"MEAN_MOTION_DDOT":0}]
